NORAD_CAT_ID,OBJECT_NAME,OBJECT_TYPE,EPOCH,MEAN_MOTION,ECCENTRICITY,INCLINATION,RA_OF_ASC_NODE,ARG_OF_PERICENTER,MEAN_ANOMALY,BSTAR,MEAN_MOTION_DOT,MEAN_MOTION_DDOT,TLE_LINE0,TLE_LINE1,TLE_LINE2,SEMIMAJOR_AXIS,PERIOD,APOGEE,PERIGEE,DECAYED
56477.0,STARLINK-5534,PAYLOAD,2024-01-09 06:25:42,14.98325745,0.0002442,70.002,317.3175,254.9436,105.1453,-4.2699e-05,-6.02e-06,0.0,0 STARLINK-5534,1 56477U 23064AF  24009.26784841 -.00000602  00000-0 -42699-4 0  9993,2 56477  70.0020 317.3175 0002442 254.9436 105.1453 14.98325745 37346,6950.206,96.107,573.768,570.374,0.0
56477.0,STARLINK-5534,PAYLOAD,2024-01-09 22:27:02,14.98334121,0.0002657,70.0015,315.6338,263.1839,96.9018,1.4441e-05,7.9e-07,0.0,0 STARLINK-5534,1 56477U 23064AF  24009.93544154  .00000079  00000-0  14441-4 0  9998,2 56477  70.0015 315.6338 0002657 263.1839  96.9018 14.98334121 37442,6950.18,96.107,573.892,570.198,0.0
56477.0,STARLINK-5534,PAYLOAD,2024-01-10 04:51:34,14.98332834,0.0002617,70.002,314.9614,260.8808,99.2055,2.4813e-05,2.03e-06,0.0,0 STARLINK-5534,1 56477U 23064AF  24010.20248162  .00000203  00000-0  24813-4 0  9993,2 56477  70.0020 314.9614 0002617 260.8808  99.2055 14.98332834 37843,6950.184,96.107,573.868,570.23,0.0
56477.0,STARLINK-5534,PAYLOAD,2024-01-10 06:27:42,14.98342105,0.000242,70.0021,314.7926,259.2321,100.8566,-0.00013561,-1.711e-05,0.0,0 STARLINK-5534,1 56477U 23064AF  24010.26923958 -.00001711  00000-0 -13561-3 0  9996,2 56477  70.0021 314.7926 0002420 259.2321 100.8566 14.98342105 37491,6950.155,96.106,573.702,570.339,0.0
56477.0,STARLINK-5534,PAYLOAD,2024-01-11 06:29:43,14.98331945,0.0002398,70.0023,312.2657,257.1273,102.9619,0.00011226,1.247e-05,0.0,0 STARLINK-5534,1 56477U 23064AF  24011.27063818  .00001247  00000-0  11226-3 0  9996,2 56477  70.0023 312.2657 0002398 257.1273 102.9619 14.98331945 38004,6950.187,96.107,573.719,570.385,0.0
56477.0,STARLINK-5534,PAYLOAD,2024-01-11 22:31:04,14.9832654,0.0002928,70.0011,310.5824,269.8099,90.2724,-9.5191e-05,-1.228e-05,0.0,0 STARLINK-5534,1 56477U 23064AF  24011.93824719 -.00001228  00000-0 -95191-4 0  9999,2 56477  70.0011 310.5824 0002928 269.8099  90.2724 14.98326540 37744,6950.204,96.107,574.104,570.034,0.0
56477.0,STARLINK-5534,PAYLOAD,2024-01-12 03:19:28,14.9832891,0.0002555,70.0016,310.0778,258.5715,101.5158,-8.5129e-05,-1.108e-05,0.0,0 STARLINK-5534,1 56477U 23064AF  24012.13852542 -.00001108  00000-0 -85129-4 0  9994,2 56477  70.0016 310.0778 0002555 258.5715 101.5158 14.98328910 38132,6950.196,96.107,573.837,570.285,0.0
56477.0,STARLINK-5534,PAYLOAD,2024-01-12 06:31:44,14.98328766,0.0002569,70.0019,309.7419,257.3203,102.7669,-5.401e-05,-7.37e-06,0.0,0 STARLINK-5534,1 56477U 23064AF  24012.27204426 -.00000737  00000-0 -54010-4 0  9993,2 56477  70.0019 309.7419 0002569 257.3203 102.7669 14.98328766 37796,6950.197,96.107,573.847,570.276,0.0
56477.0,STARLINK-5534,PAYLOAD,2024-01-12 22:33:05,14.98326545,0.0002696,70.0014,308.0576,258.0241,102.0616,-8.1723e-05,-1.068e-05,0.0,0 STARLINK-5534,1 56477U 23064AF  24012.93964717 -.00001068  00000-0 -81723-4 0  9991,2 56477  70.0014 308.0576 0002696 258.0241 102.0616 14.98326545 37897,6950.204,96.107,573.942,570.195,0.0
56477.0,STARLINK-5534,PAYLOAD,2024-01-13 03:21:29,14.98327793,0.000257,70.0014,307.5527,253.8601,106.2275,-2.9552e-05,-4.45e-06,0.0,0 STARLINK-5534,1 56477U 23064AF  24013.13992524 -.00000445  00000-0 -29552-4 0  9991,2 56477  70.0014 307.5527 0002570 253.8601 106.2275 14.98327793 38288,6950.2,96.107,573.851,570.279,0.0
56477.0,STARLINK-5534,PAYLOAD,2024-01-13 04:57:37,14.98329817,0.0002908,70.0014,307.3846,262.57,97.5128,-3.4083e-05,-5e-06,0.0,0 STARLINK-5534,1 56477U 23064AF  24013.20668401 -.00000500  00000-0 -34083-4 0  9990,2 56477  70.0014 307.3846 0002908 262.5700  97.5128 14.98329817 37931,6950.193,96.107,574.08,570.037,0.0
56477.0,STARLINK-5534,PAYLOAD,2024-01-14 03:23:30,14.98331426,0.0002574,70.0015,305.029,250.9144,109.1736,8.7503e-05,9.51e-06,0.0,0 STARLINK-5534,1 56477U 23064AF  24014.14132056  .00000951  00000-0  87503-4 0  9999,2 56477  70.0015 305.0290 0002574 250.9144 109.1736 14.98331426 38432,6950.188,96.107,573.842,570.265,0.0
56477.0,STARLINK-5534,PAYLOAD,2024-01-14 04:59:38,14.98332255,0.0002569,70.0015,304.8608,250.3926,109.6956,9.4841e-05,1.039e-05,0.0,0 STARLINK-5534,1 56477U 23064AF  24014.20807976  .00001039  00000-0  94841-4 0  9997,2 56477  70.0015 304.8608 0002569 250.3926 109.6956 14.98332255 38089,6950.186,96.107,573.836,570.265,0.0
56477.0,STARLINK-5534,PAYLOAD,2024-01-14 22:37:06,14.98332366,0.0002527,70.0014,303.0092,248.5651,111.5239,8.7785e-05,9.55e-06,0.0,0 STARLINK-5534,1 56477U 23064AF  24014.94243830  .00000955  00000-0  87785-4 0  9996,2 56477  70.0014 303.0092 0002527 248.5651 111.5239 14.98332366 38195,6950.186,96.107,573.807,570.294,0.0
56477.0,STARLINK-5534,PAYLOAD,2024-01-15 03:25:30,14.98334565,0.0002494,70.0015,302.5048,247.1698,112.9198,0.00010904,1.208e-05,0.0,0 STARLINK-5534,1 56477U 23064AF  24015.14271582  .00001208  00000-0  10904-3 0  9994,2 56477  70.0015 302.5048 0002494 247.1698 112.9198 14.98334565 38585,6950.179,96.107,573.777,570.31,0.0
56477.0,STARLINK-5534,PAYLOAD,2024-01-15 05:01:38,14.98335412,0.0002504,70.0014,302.3367,251.7666,108.3221,0.00011391,1.267e-05,0.0,0 STARLINK-5534,1 56477U 23064AF  24015.20947509  .00001267  00000-0  11391-3 0  9996,2 56477  70.0014 302.3367 0002504 251.7666 108.3221 14.98335412 38234,6950.176,96.107,573.781,570.301,0.0
56477.0,STARLINK-5534,PAYLOAD,2024-01-15 19:26:51,14.98330351,0.0001911,70.0031,300.8243,242.9988,117.0976,-2.5525e-05,-3.97e-06,0.0,0 STARLINK-5534,1 56477U 23064AF  24015.81032272 -.00000397  00000-0 -25525-4 0  9995,2 56477  70.0031 300.8243 0001911 242.9988 117.0976 14.98330351 38689,6950.192,96.107,573.385,570.729,0.0
56477.0,STARLINK-5534,PAYLOAD,2024-01-15 21:03:00,14.98329186,0.0002647,70.0021,300.6561,239.6365,120.4532,-8.4215e-05,-1.098e-05,0.0,0 STARLINK-5534,1 56477U 23064AF  24015.87708338 -.00001098  00000-0 -84215-4 0  9994,2 56477  70.0021 300.6561 0002647 239.6365 120.4532 14.98329186 38330,6950.195,96.107,573.9,570.221,0.0
56477.0,STARLINK-5534,PAYLOAD,2024-01-16 01:51:24,14.98329125,0.000251,70.0023,300.151,237.1056,122.9862,-6.5717e-05,-8.77e-06,0.0,0 STARLINK-5534,1 56477U 23064AF  24016.07736330 -.00000877  00000-0 -65717-4 0  9990,2 56477  70.0023 300.1510 0002510 237.1056 122.9862 14.98329125 38369,6950.196,96.107,573.805,570.316,0.0
56477.0,STARLINK-5534,PAYLOAD,2024-01-16 19:28:52,14.98332444,0.000272,70.0005,298.2953,265.1638,94.9211,-6.0679e-05,-8.17e-06,0.0,0 STARLINK-5534,1 56477U 23064AF  24016.81172086 -.00000817  00000-0 -60679-4 0  9990,2 56477  70.0005 298.2953 0002720 265.1638  94.9211 14.98332444 38833,6950.185,96.107,573.941,570.16,0.0
56477.0,STARLINK-5534,PAYLOAD,2024-01-16 22:41:08,14.98332865,0.0002731,70.0007,297.959,261.3796,98.7054,-6.3856e-05,-8.55e-06,0.0,0 STARLINK-5534,1 56477U 23064AF  24016.94524021 -.00000855  00000-0 -63856-4 0  9996,2 56477  70.0007 297.9590 0002731 261.3796  98.7054 14.98332865 38499,6950.184,96.107,573.947,570.151,0.0
56477.0,STARLINK-5534,PAYLOAD,2024-01-17 05:05:40,14.98338186,0.0002607,70.0008,297.2855,261.1583,98.9281,7.2385e-06,-7e-08,0.0,0 STARLINK-5534,1 56477U 23064AF  24017.21227404 -.00000007  00000-0  72385-5 0  9998,2 56477  70.0008 297.2855 0002607 261.1583  98.9281 14.98338186 38891,6950.168,96.106,573.844,570.221,0.0
56477.0,STARLINK-5534,PAYLOAD,2024-01-17 19:30:55,14.98306447,0.0002464,70.0048,295.7804,218.2756,141.8228,-0.00012571,-1.591e-05,0.0,0 STARLINK-5534,1 56477U 23064AF  24017.81314324 -.00001591  00000-0 -12571-3 0  9991,2 56477  70.0048 295.7804 0002464 218.2756 141.8228 14.98306447 38982,6950.266,96.109,573.843,570.418,0.0
56477.0,STARLINK-5534,PAYLOAD,2024-01-17 22:43:12,14.98304273,0.0002511,70.0011,295.4344,255.7064,104.3816,-0.00018049,-2.244e-05,0.0,0 STARLINK-5534,1 56477U 23064AF  24017.94666738 -.00002244  00000-0 -18049-3 0  9996,2 56477  70.0011 295.4344 0002511 255.7064 104.3816 14.98304273 38644,6950.272,96.109,573.883,570.392,0.0
56477.0,STARLINK-5534,PAYLOAD,2024-01-18 03:31:36,14.98302035,0.0002742,70.0021,294.9337,230.1432,129.9486,-0.00019595,-2.428e-05,0.0,0 STARLINK-5534,1 56477U 23064AF  24018.14695182 -.00002428  00000-0 -19595-3 0  9995,2 56477  70.0021 294.9337 0002742 230.1432 129.9486 14.98302035 39037,6950.279,96.109,574.05,570.239,0.0
56477.0,STARLINK-5534,PAYLOAD,2024-01-18 19:32:56,14.98326637,0.0003567,69.9979,293.243,278.782,81.2935,-2.8616e-05,-4.35e-06,0.0,0 STARLINK-5534,1 56477U 23064AF  24018.81453705 -.00000435  00000-0 -28616-4 0  9993,2 56477  69.9979 293.2430 0003567 278.7820  81.2935 14.98326637 39131,6950.203,96.107,574.547,569.589,0.0
56477.0,STARLINK-5534,PAYLOAD,2024-01-18 21:09:03,14.98327436,0.0002442,70.0016,293.0777,256.8002,103.2885,2.5852e-05,2.16e-06,0.0,0 STARLINK-5534,1 56477U 23064AF  24018.88129419  .00000216  00000-0  25852-4 0  9996,2 56477  70.0016 293.0777 0002442 256.8002 103.2885 14.98327436 38785,6950.201,96.107,573.763,570.369,0.0
56477.0,STARLINK-5534,PAYLOAD,2024-01-19 03:33:34,14.9834238,0.0002778,70.0001,292.403,261.4155,98.6689,0.00015029,1.701e-05,0.0,0 STARLINK-5534,1 56477U 23064AF  24019.14832070  .00001701  00000-0  15029-3 0  9994,2 56477  70.0001 292.4030 0002778 261.4155  98.6689 14.98342380 39186,6950.155,96.106,573.95,570.089,0.0
56477.0,STARLINK-5534,PAYLOAD,2024-01-19 19:34:55,14.98328456,0.0002709,70.0,290.7199,260.4289,99.6564,0.00030933,3.6e-05,0.0,0 STARLINK-5534,1 56477U 23064AF  24019.81592499  .00003600  00000-0  30933-3 0  9997,2 56477  70.0000 290.7199 0002709 260.4289  99.6564 14.98328456 39285,6950.198,96.107,573.945,570.18,0.0
56477.0,STARLINK-5534,PAYLOAD,2024-01-19 22:47:11,14.98329204,0.0002679,69.9999,290.3827,262.5071,97.5784,0.00031438,3.66e-05,0.0,0 STARLINK-5534,1 56477U 23064AF  24019.94944434  .00003660  00000-0  31438-3 0  9998,2 56477  69.9999 290.3827 0002679 262.5071  97.5784 14.98329204 38946,6950.195,96.107,573.922,570.198,0.0
